{"type": "FeatureCollection", "features": [ {"type": "Feature", "properties": {"norad_id": 40664, "name": "SKY MEXICO-1", "group": "intelsat", "lat": 0.030839900127599837, "lon": 102.08345642828012, "alt_km": 35796.78238343861, "timestamp": "2025-12-24T05:51:19.273305+00:00", "meta": {"OBJECT_NAME": "SKY MEXICO-1", "OBJECT_ID": "2015-026B", "EPOCH": "2025-12-23T21:19:04.901088", "MEAN_MOTION": 1.0027056, "ECCENTRICITY": 0.00024588, "INCLINATION": 0.009, "RA_OF_ASC_NODE": 28.3066, "ARG_OF_PERICENTER": 260.8975, "MEAN_ANOMALY": 44.4735, "EPHEMERIS_TYPE": 0, "CLASSIFICATION_TYPE": "U", "NORAD_CAT_ID": 40664, "ELEMENT_SET_NO": 999, "REV_AT_EPOCH": 3869, "BSTAR": 0, "MEAN_MOTION_DOT": -2.13e-06, "MEAN_MOTION_DDOT": 0}, "tle": {"line1": "1 40664U 15026B   25357.88825117 -.00000213  00000+0  00000+0 0  9991", "line2": "2 40664   0.0090  28.3066 0002458 260.8975  44.4735  1.00270560 38696"}}, "geometry": {"type": "Point", "coordinates": [102.08345642828012, 0.030839900127599837]}}, {"type": "Feature", "properties": {"norad_id": 40874, "name": "INTELSAT 34 (IS-34)", "group": "intelsat", "lat": 0.014906122763476177, "lon": 125.34730346258317, "alt_km": 35784.04046316645, "timestamp": "2025-12-24T05:51:19.273317+00:00", "meta": {"OBJECT_NAME": "INTELSAT 34 (IS-34)", "OBJECT_ID": "2015-039A", "EPOCH": "2025-12-23T19:42:59.103360", "MEAN_MOTION": 1.00270476, "ECCENTRICITY": 7.121e-05, "INCLINATION": 0.0141, "RA_OF_ASC_NODE": 314.1249, "ARG_OF_PERICENTER": 206.2601, "MEAN_ANOMALY": 172.4751, "EPHEMERIS_TYPE": 0, "CLASSIFICATION_TYPE": "U", "NORAD_CAT_ID": 40874, "ELEMENT_SET_NO": 999, "REV_AT_EPOCH": 3786, "BSTAR": 0, "MEAN_MOTION_DOT": -2.64e-06, "MEAN_MOTION_DDOT": 0}, "tle": {"line1": "1 40874U 15039A   25357.82151740 -.00000264  00000+0  00000+0 0  9992", "line2": "2 40874   0.0141 314.1249 0000712 206.2601 172.4751  1.00270476 37860"}}, "geometry": {"type": "Point", "coordinates": [125.34730346258317, 0.014906122763476177]}}, {"type": "Feature", "properties": {"norad_id": 41581, "name": "INTELSAT 31 (IS-31)", "group": "intelsat", "lat": 0.01651566020265661, "lon": 85.76267127533563, "alt_km": 35790.718311275974, "timestamp": "2025-12-24T05:51:19.273329+00:00", "meta": {"OBJECT_NAME": "INTELSAT 31 (IS-31)", "OBJECT_ID": "2016-035A", "EPOCH": "2025-12-23T19:31:44.704704", "MEAN_MOTION": 1.00269658, "ECCENTRICITY": 0.00019255, "INCLINATION": 0.0283, "RA_OF_ASC_NODE": 262.055, "ARG_OF_PERICENTER": 303.365, "MEAN_ANOMALY": 85.0534, "EPHEMERIS_TYPE": 0, "CLASSIFICATION_TYPE": "U", "NORAD_CAT_ID": 41581, "ELEMENT_SET_NO": 999, "REV_AT_EPOCH": 3492, "BSTAR": 0, "MEAN_MOTION_DOT": -1.29e-06, "MEAN_MOTION_DDOT": 0}, "tle": {"line1": "1 41581U 16035A   25357.81371186 -.00000129  00000+0  00000+0 0  9992", "line2": "2 41581   0.0283 262.0550 0001925 303.3650  85.0534  1.00269658 34921"}}, "geometry": {"type": "Point", "coordinates": [85.76267127533563, 0.01651566020265661]}}, {"type": "Feature", "properties": {"norad_id": 41747, "name": "INTELSAT 36 (IS-36)", "group": "intelsat", "lat": -0.02883122778789167, "lon": -110.67392848528719, "alt_km": 35785.13770474549, "timestamp": "2025-12-24T05:51:19.273340+00:00", "meta": {"OBJECT_NAME": "INTELSAT 36 (IS-36)", "OBJECT_ID": "2016-053A", "EPOCH": "2025-12-23T22:01:00.883776", "MEAN_MOTION": 1.00271056, "ECCENTRICITY": 0.00011315, "INCLINATION": 0.0103, "RA_OF_ASC_NODE": 8.014, "ARG_OF_PERICENTER": 317.6781, "MEAN_ANOMALY": 165.7553, "EPHEMERIS_TYPE": 0, "CLASSIFICATION_TYPE": "U", "NORAD_CAT_ID": 41747, "ELEMENT_SET_NO": 999, "REV_AT_EPOCH": 3419, "BSTAR": 0, "MEAN_MOTION_DOT": -3e-08, "MEAN_MOTION_DDOT": 0}, "tle": {"line1": "1 41747U 16053A   25357.91737134 -.00000003  00000+0  00000+0 0  9997", "line2": "2 41747   0.0103   8.0140 0001131 317.6781 165.7553  1.00271056 34192"}}, "geometry": {"type": "Point", "coordinates": [-110.67392848528719, -0.02883122778789167]}}, {"type": "Feature", "properties": {"norad_id": 41945, "name": "INTELSAT 32E (IS-32E)", "group": "intelsat", "lat": 0.036257234270361906, "lon": 137.67244309946227, "alt_km": 35786.484624515266, "timestamp": "2025-12-24T05:51:19.273351+00:00", "meta": {"OBJECT_NAME": "INTELSAT 32E (IS-32E)", "OBJECT_ID": "2017-007B", "EPOCH": "2025-12-23T16:21:03.290976", "MEAN_MOTION": 1.0026875, "ECCENTRICITY": 2.529e-05, "INCLINATION": 0.0225, "RA_OF_ASC_NODE": 67.8207, "ARG_OF_PERICENTER": 7.8321, "MEAN_ANOMALY": 218.9086, "EPHEMERIS_TYPE": 0, "CLASSIFICATION_TYPE": "U", "NORAD_CAT_ID": 41945, "ELEMENT_SET_NO": 999, "REV_AT_EPOCH": 3246, "BSTAR": 0, "MEAN_MOTION_DOT": -2.48e-06, "MEAN_MOTION_DDOT": 0}, "tle": {"line1": "1 41945U 17007B   25357.68128809 -.00000248  00000+0  00000+0 0  9995", "line2": "2 41945   0.0225  67.8207 0000252   7.8321 218.9086  1.00268750 32462"}}, "geometry": {"type": "Point", "coordinates": [137.67244309946227, 0.036257234270361906]}}, {"type": "Feature", "properties": {"norad_id": 42818, "name": "INTELSAT 35E (IS-35E)", "group": "intelsat", "lat": 0.036048699943058406, "lon": 146.3137834415944, "alt_km": 35793.321365263444, "timestamp": "2025-12-24T05:51:19.273363+00:00", "meta": {"OBJECT_NAME": "INTELSAT 35E (IS-35E)", "OBJECT_ID": "2017-041A", "EPOCH": "2025-12-23T19:48:58.529088", "MEAN_MOTION": 1.00267018, "ECCENTRICITY": 0.00020166, "INCLINATION": 0.0218, "RA_OF_ASC_NODE": 25.8487, "ARG_OF_PERICENTER": 253.9261, "MEAN_ANOMALY": 75.5708, "EPHEMERIS_TYPE": 0, "CLASSIFICATION_TYPE": "U", "NORAD_CAT_ID": 42818, "ELEMENT_SET_NO": 999, "REV_AT_EPOCH": 3105, "BSTAR": 0, "MEAN_MOTION_DOT": 0, "MEAN_MOTION_DDOT": 0}, "tle": {"line1": "1 42818U 17041A   25357.82567742  .00000000  00000+0  00000+0 0  9997", "line2": "2 42818   0.0218  25.8487 0002016 253.9261  75.5708  1.00267018 31053"}}, "geometry": {"type": "Point", "coordinates": [146.3137834415944, 0.036048699943058406]}}, {"type": "Feature", "properties": {"norad_id": 42950, "name": "INTELSAT 37E (IS-37E)", "group": "intelsat", "lat": 0.023030433697107413, "lon": 162.81212801239374, "alt_km": 35788.76615362778, "timestamp": "2025-12-24T05:51:19.273374+00:00", "meta": {"OBJECT_NAME": "INTELSAT 37E (IS-37E)", "OBJECT_ID": "2017-059A", "EPOCH": "2025-12-23T21:36:25.739424", "MEAN_MOTION": 1.00270019, "ECCENTRICITY": 0.00030276, "INCLINATION": 0.0203, "RA_OF_ASC_NODE": 17.2071, "ARG_OF_PERICENTER": 245.2871, "MEAN_ANOMALY": 136.2991, "EPHEMERIS_TYPE": 0, "CLASSIFICATION_TYPE": "U", "NORAD_CAT_ID": 42950, "ELEMENT_SET_NO": 999, "REV_AT_EPOCH": 3030, "BSTAR": 0, "MEAN_MOTION_DOT": 0, "MEAN_MOTION_DDOT": 0}, "tle": {"line1": "1 42950U 17059A   25357.90029791  .00000000  00000+0  00000+0 0  9999", "line2": "2 42950   0.0203  17.2071 0003027 245.2871 136.2991  1.00270019 30303"}}, "geometry": {"type": "Point", "coordinates": [162.81212801239374, 0.023030433697107413]}}, {"type": "Feature", "properties": {"norad_id": 43632, "name": "AZERSPACE 2 (IS-38)", "group": "intelsat", "lat": -0.014809867417747473, "lon": -134.05993703412526, "alt_km": 35782.727437978785, "timestamp": "2025-12-24T05:51:19.273386+00:00", "meta": {"OBJECT_NAME": "AZERSPACE 2 (IS-38)", "OBJECT_ID": "2018-074A", "EPOCH": "2025-12-23T21:54:24.016608", "MEAN_MOTION": 1.00270604, "ECCENTRICITY": 0.00012578, "INCLINATION": 0.0004, "RA_OF_ASC_NODE": 0.5024, "ARG_OF_PERICENTER": 272.1539, "MEAN_ANOMALY": 193.7454, "EPHEMERIS_TYPE": 0, "CLASSIFICATION_TYPE": "U", "NORAD_CAT_ID": 43632, "ELEMENT_SET_NO": 999, "REV_AT_EPOCH": 2669, "BSTAR": 0, "MEAN_MOTION_DOT": 1.58e-06, "MEAN_MOTION_DDOT": 0}, "tle": {"line1": "1 43632U 18074A   25357.91277797  .00000158  00000+0  00000+0 0  9991", "line2": "2 43632   0.0004   0.5024 0001257 272.1539 193.7454  1.00270604 26695"}}, "geometry": {"type": "Point", "coordinates": [-134.05993703412526, -0.014809867417747473]}}, {"type": "Feature", "properties": {"norad_id": 43633, "name": "HORIZONS-3E", "group": "intelsat", "lat": 0.0019727967438867774, "lon": -10.154401200792595, "alt_km": 35784.26436951882, "timestamp": "2025-12-24T05:51:19.273398+00:00", "meta": {"OBJECT_NAME": "HORIZONS-3E", "OBJECT_ID": "2018-074B", "EPOCH": "2025-12-23T07:05:21.073920", "MEAN_MOTION": 1.00271636, "ECCENTRICITY": 5.694e-05, "INCLINATION": 0.0488, "RA_OF_ASC_NODE": 189.0335, "ARG_OF_PERICENTER": 120.6769, "MEAN_ANOMALY": 57.71, "EPHEMERIS_TYPE": 0, "CLASSIFICATION_TYPE": "U", "NORAD_CAT_ID": 43633, "ELEMENT_SET_NO": 999, "REV_AT_EPOCH": 2657, "BSTAR": 0, "MEAN_MOTION_DOT": -9e-08, "MEAN_MOTION_DDOT": 0}, "tle": {"line1": "1 43633U 18074B   25357.29538280 -.00000009  00000+0  00000+0 0  9996", "line2": "2 43633   0.0488 189.0335 0000569 120.6769  57.7100  1.00271636 26577"}}, "geometry": {"type": "Point", "coordinates": [-10.154401200792595, 0.0019727967438867774]}}, {"type": "Feature", "properties": {"norad_id": 44333, "name": "AT&T T-16", "group": "intelsat", "lat": 0.021885542288161725, "lon": 79.96790656734463, "alt_km": 35784.81244645396, "timestamp": "2025-12-24T05:51:19.273409+00:00", "meta": {"OBJECT_NAME": "AT&T T-16", "OBJECT_ID": "2019-034A", "EPOCH": "2025-12-23T03:21:38.542752", "MEAN_MOTION": 1.00269221, "ECCENTRICITY": 8.459e-05, "INCLINATION": 0.0204, "RA_OF_ASC_NODE": 63.1564, "ARG_OF_PERICENTER": 72.8406, "MEAN_ANOMALY": 265.4876, "EPHEMERIS_TYPE": 0, "CLASSIFICATION_TYPE": "U", "NORAD_CAT_ID": 44333, "ELEMENT_SET_NO": 999, "REV_AT_EPOCH": 2386, "BSTAR": 0, "MEAN_MOTION_DOT": -9.4e-07, "MEAN_MOTION_DDOT": 0}, "tle": {"line1": "1 44333U 19034A   25357.14002943 -.00000094  00000+0  00000+0 0  9991", "line2": "2 44333   0.0204  63.1564 0000845  72.8406 265.4876  1.00269221 23864"}}, "geometry": {"type": "Point", "coordinates": [79.96790656734463, 0.021885542288161725]}}]}